{
  "type": "FeatureCollection",
  "features": [
    {
      "type": "Feature",
      "properties": {
        "norad_id": 34846,
        "name": "COSMOS 2251 DEB",
        "group": "cosmos-2251-debris",
        "lat": 56.409713371614906,
        "lon": 62.62873089031559,
        "alt_km": 744.2886028664097,
        "timestamp": "2025-12-09T07:41:33.606954+00:00",
        "meta_object_name": "COSMOS 2251 DEB",
        "meta_object_id": "1993-036ABQ",
        "meta_epoch": "2025-12-08T21:11:11.188032",
        "meta_mean_motion": 14.4717476,
        "meta_eccentricity": 0.00260387,
        "meta_inclination": 74.0309,
        "meta_ra_of_asc_node": 268.9874,
        "meta_arg_of_pericenter": 335.7966,
        "meta_mean_anomaly": 24.1968,
        "meta_ephemeris_type": 0,
        "meta_classification_type": "U",
        "meta_norad_cat_id": 34846,
        "meta_element_set_no": 999,
        "meta_rev_at_epoch": 87348,
        "meta_bstar": 0.0012042857,
        "meta_mean_motion_dot": 4.39e-05,
        "meta_mean_motion_ddot": 0,
        "tle_line1": "1 34846U 93036ABQ 25342.88276838  .00004390  00000+0  12043-2 0  9999",
        "tle_line2": "2 34846  74.0309 268.9874 0026038 335.7966  24.1968 14.47174760873483"
      },
      "geometry": {
        "type": "Point",
        "coordinates": [
          62.62873089031559,
          56.409713371614906
        ]
      }
    },
    {
      "type": "Feature",
      "properties": {
        "norad_id": 34852,
        "name": "COSMOS 2251 DEB",
        "group": "cosmos-2251-debris",
        "lat": -46.57988987817109,
        "lon": -108.35036609571917,
        "alt_km": 769.5175480968355,
        "timestamp": "2025-12-09T07:41:33.606964+00:00",
        "meta_object_name": "COSMOS 2251 DEB",
        "meta_object_id": "1993-036ABW",
        "meta_epoch": "2025-12-08T03:30:58.051008",
        "meta_mean_motion": 14.36998906,
        "meta_eccentricity": 0.00159572,
        "meta_inclination": 74.0329,
        "meta_ra_of_asc_node": 271.4188,
        "meta_arg_of_pericenter": 15.6529,
        "meta_mean_anomaly": 344.5114,
        "meta_ephemeris_type": 0,
        "meta_classification_type": "U",
        "meta_norad_cat_id": 34852,
        "meta_element_set_no": 999,
        "meta_rev_at_epoch": 87468,
        "meta_bstar": 0.00020021902,
        "meta_mean_motion_dot": 5.68e-06,
        "meta_mean_motion_ddot": 0,
        "tle_line1": "1 34852U 93036ABW 25342.14650522  .00000568  00000+0  20022-3 0  9991",
        "tle_line2": "2 34852  74.0329 271.4188 0015957  15.6529 344.5114 14.36998906874685"
      },
      "geometry": {
        "type": "Point",
        "coordinates": [
          -108.35036609571917,
          -46.57988987817109
        ]
      }
    },
    {
      "type": "Feature",
      "properties": {
        "norad_id": 34854,
        "name": "COSMOS 2251 DEB",
        "group": "cosmos-2251-debris",
        "lat": 73.89768996162348,
        "lon": -111.91755227984808,
        "alt_km": 678.5491606519072,
        "timestamp": "2025-12-09T07:41:33.606974+00:00",
        "meta_object_name": "COSMOS 2251 DEB",
        "meta_object_id": "1993-036ABY",
        "meta_epoch": "2025-12-08T21:32:11.223168",
        "meta_mean_motion": 14.76567375,
        "meta_eccentricity": 0.00661959,
        "meta_inclination": 74.0284,
        "meta_ra_of_asc_node": 166.1138,
        "meta_arg_of_pericenter": 278.5494,
        "meta_mean_anomaly": 80.8182,
        "meta_ephemeris_type": 0,
        "meta_classification_type": "U",
        "meta_norad_cat_id": 34854,
        "meta_element_set_no": 999,
        "meta_rev_at_epoch": 71825,
        "meta_bstar": 0.00079380428,
        "meta_mean_motion_dot": 5.711e-05,
        "meta_mean_motion_ddot": 0,
        "tle_line1": "1 34854U 93036ABY 25342.89735212  .00005711  00000+0  79380-3 0  9991",
        "tle_line2": "2 34854  74.0284 166.1138 0066195 278.5494  80.8182 14.76567375718254"
      },
      "geometry": {
        "type": "Point",
        "coordinates": [
          -111.91755227984808,
          73.89768996162348
        ]
      }
    },
    {
      "type": "Feature",
      "properties": {
        "norad_id": 34856,
        "name": "COSMOS 2251 DEB",
        "group": "cosmos-2251-debris",
        "lat": 18.318893210497976,
        "lon": -93.56694659641333,
        "alt_km": 540.6818578515695,
        "timestamp": "2025-12-09T07:41:33.606984+00:00",
        "meta_object_name": "COSMOS 2251 DEB",
        "meta_object_id": "1993-036ACA",
        "meta_epoch": "2025-12-07T07:16:15.266208",
        "meta_mean_motion": 15.05609422,
        "meta_eccentricity": 0.00340835,
        "meta_inclination": 73.9995,
        "meta_ra_of_asc_node": 96.0289,
        "meta_arg_of_pericenter": 234.6289,
        "meta_mean_anomaly": 154.9429,
        "meta_ephemeris_type": 0,
        "meta_classification_type": "U",
        "meta_norad_cat_id": 34856,
        "meta_element_set_no": 999,
        "meta_rev_at_epoch": 89030,
        "meta_bstar": 0.0029359125,
        "meta_mean_motion_dot": 0.00043129,
        "meta_mean_motion_ddot": 0,
        "tle_line1": "1 34856U 93036ACA 25341.30295447  .00043129  00000+0  29359-2 0  9994",
        "tle_line2": "2 34856  73.9995  96.0289 0034083 234.6289 154.9429 15.05609422890304"
      },
      "geometry": {
        "type": "Point",
        "coordinates": [
          -93.56694659641333,
          18.318893210497976
        ]
      }
    },
    {
      "type": "Feature",
      "properties": {
        "norad_id": 34857,
        "name": "COSMOS 2251 DEB",
        "group": "cosmos-2251-debris",
        "lat": 28.583932813684573,
        "lon": 122.33645487906564,
        "alt_km": 736.3127031137128,
        "timestamp": "2025-12-09T07:41:33.606994+00:00",
        "meta_object_name": "COSMOS 2251 DEB",
        "meta_object_id": "1993-036ACB",
        "meta_epoch": "2025-12-08T10:25:24.353760",
        "meta_mean_motion": 14.58817538,
        "meta_eccentricity": 0.00660207,
        "meta_inclination": 74.0156,
        "meta_ra_of_asc_node": 115.0408,
        "meta_arg_of_pericenter": 240.2546,
        "meta_mean_anomaly": 177.0237,
        "meta_ephemeris_type": 0,
        "meta_classification_type": "U",
        "meta_norad_cat_id": 34857,
        "meta_element_set_no": 999,
        "meta_rev_at_epoch": 87838,
        "meta_bstar": 0.0017018109,
        "meta_mean_motion_dot": 8.182e-05,
        "meta_mean_motion_ddot": 0,
        "tle_line1": "1 34857U 93036ACB 25342.43430965  .00008182  00000+0  17018-2 0  9995",
        "tle_line2": "2 34857  74.0156 115.0408 0066020 240.2546 177.0237 14.58817538878389"
      },
      "geometry": {
        "type": "Point",
        "coordinates": [
          122.33645487906564,
          28.583932813684573
        ]
      }
    },
    {
      "type": "Feature",
      "properties": {
        "norad_id": 34859,
        "name": "COSMOS 2251 DEB",
        "group": "cosmos-2251-debris",
        "lat": 19.4212929513148,
        "lon": -7.4371850220134075,
        "alt_km": 523.3265842798473,
        "timestamp": "2025-12-09T07:41:33.607005+00:00",
        "meta_object_name": "COSMOS 2251 DEB",
        "meta_object_id": "1993-036ACD",
        "meta_epoch": "2025-12-08T11:32:59.096256",
        "meta_mean_motion": 15.13637919,
        "meta_eccentricity": 0.00030343,
        "meta_inclination": 74.0307,
        "meta_ra_of_asc_node": 348.5102,
        "meta_arg_of_pericenter": 325.5019,
        "meta_mean_anomaly": 163.1698,
        "meta_ephemeris_type": 0,
        "meta_classification_type": "U",
        "meta_norad_cat_id": 34859,
        "meta_element_set_no": 999,
        "meta_rev_at_epoch": 88294,
        "meta_bstar": 0.0055058518,
        "meta_mean_motion_dot": 0.00100346,
        "meta_mean_motion_ddot": 0,
        "tle_line1": "1 34859U 93036ACD 25342.48123954  .00100346  00000+0  55059-2 0  9991",
        "tle_line2": "2 34859  74.0307 348.5102 0003034 325.5019 163.1698 15.13637919882940"
      },
      "geometry": {
        "type": "Point",
        "coordinates": [
          -7.4371850220134075,
          19.4212929513148
        ]
      }
    },
    {
      "type": "Feature",
      "properties": {
        "norad_id": 34861,
        "name": "COSMOS 2251 DEB",
        "group": "cosmos-2251-debris",
        "lat": 66.87388678143982,
        "lon": 99.9817262997337,
        "alt_km": 548.7688385477277,
        "timestamp": "2025-12-09T07:41:33.607015+00:00",
        "meta_object_name": "COSMOS 2251 DEB",
        "meta_object_id": "1993-036ACF",
        "meta_epoch": "2025-12-08T16:03:17.309376",
        "meta_mean_motion": 15.02178705,
        "meta_eccentricity": 0.00064901,
        "meta_inclination": 74.019,
        "meta_ra_of_asc_node": 59.1641,
        "meta_arg_of_pericenter": 60.5092,
        "meta_mean_anomaly": 90.3839,
        "meta_ephemeris_type": 0,
        "meta_classification_type": "U",
        "meta_norad_cat_id": 34861,
        "meta_element_set_no": 999,
        "meta_rev_at_epoch": 88031,
        "meta_bstar": 0.0031768662,
        "meta_mean_motion_dot": 0.00042072,
        "meta_mean_motion_ddot": 0,
        "tle_line1": "1 34861U 93036ACF 25342.66895034  .00042072  00000+0  31769-2 0  9992",
        "tle_line2": "2 34861  74.0190  59.1641 0006490  60.5092  90.3839 15.02178705880310"
      },
      "geometry": {
        "type": "Point",
        "coordinates": [
          99.9817262997337,
          66.87388678143982
        ]
      }
    }
  ]
}